HAWK-2C                 
1 47502U 21006CT  26068.67595434  .00008129  00000+0  25493-3 0  9997
2 47502  97.2417 114.9961 0006943 184.0877 176.0310 15.33286436284247
STARLINK-35523          
1 65910U 25225A   26068.54300155  .00040841  00000+0  13841-2 0  9997
2 65910  53.1589 166.5054 0001312  65.0025 295.1112 15.30185182 24388
